{"type": "FeatureCollection", "features": [ {"type": "Feature", "properties": {"norad_id": 36659, "name": "FENGYUN 1C DEB", "group": "fengyun-1c-debris", "lat": 50.97613337567284, "lon": -16.139319383704002, "alt_km": 834.5151565075284, "timestamp": "2025-12-18T10:51:26.096259+00:00", "meta": {"OBJECT_NAME": "FENGYUN 1C DEB", "OBJECT_ID": "1999-025DYD", "EPOCH": "2025-12-17T17:18:17.799840", "MEAN_MOTION": 13.87383332, "ECCENTRICITY": 0.0135826, "INCLINATION": 99.8539, "RA_OF_ASC_NODE": 355.4732, "ARG_OF_PERICENTER": 61.7996, "MEAN_ANOMALY": 299.6799, "EPHEMERIS_TYPE": 0, "CLASSIFICATION_TYPE": "U", "NORAD_CAT_ID": 36659, "ELEMENT_SET_NO": 999, "REV_AT_EPOCH": 60494, "BSTAR": 0.00061450763, "MEAN_MOTION_DOT": 7.31e-06, "MEAN_MOTION_DDOT": 0}, "tle": {"line1": "1 36659U 99025DYD 25351.72103935  .00000731  00000+0  61451-3 0  9990", "line2": "2 36659  99.8539 355.4732 0135826  61.7996 299.6799 13.87383332604941"}}, "geometry": {"type": "Point", "coordinates": [-16.139319383704002, 50.97613337567284]}}, {"type": "Feature", "properties": {"norad_id": 36664, "name": "FENGYUN 1C DEB", "group": "fengyun-1c-debris", "lat": -65.75535932963142, "lon": 177.23950452860976, "alt_km": 959.5447765038471, "timestamp": "2025-12-18T10:51:26.096269+00:00", "meta": {"OBJECT_NAME": "FENGYUN 1C DEB", "OBJECT_ID": "1999-025DYJ", "EPOCH": "2025-12-17T08:18:14.152032", "MEAN_MOTION": 14.17958557, "ECCENTRICITY": 0.01735718, "INCLINATION": 98.604, "RA_OF_ASC_NODE": 15.8116, "ARG_OF_PERICENTER": 86.5213, "MEAN_ANOMALY": 275.5797, "EPHEMERIS_TYPE": 0, "CLASSIFICATION_TYPE": "U", "NORAD_CAT_ID": 36664, "ELEMENT_SET_NO": 999, "REV_AT_EPOCH": 63816, "BSTAR": 7.9887829e-05, "MEAN_MOTION_DOT": 1.48e-06, "MEAN_MOTION_DDOT": 0}, "tle": {"line1": "1 36664U 99025DYJ 25351.34599713  .00000148  00000+0  79888-4 0  9993", "line2": "2 36664  98.6040  15.8116 0173571  86.5213 275.5797 14.17958557638163"}}, "geometry": {"type": "Point", "coordinates": [177.23950452860976, -65.75535932963142]}}, {"type": "Feature", "properties": {"norad_id": 36668, "name": "FENGYUN 1C DEB", "group": "fengyun-1c-debris", "lat": -1.5762610390981362, "lon": -177.60596501400087, "alt_km": 811.0778223868147, "timestamp": "2025-12-18T10:51:26.096283+00:00", "meta": {"OBJECT_NAME": "FENGYUN 1C DEB", "OBJECT_ID": "1999-025DYN", "EPOCH": "2025-12-17T05:09:28.342368", "MEAN_MOTION": 14.15404749, "ECCENTRICITY": 0.00515339, "INCLINATION": 98.6094, "RA_OF_ASC_NODE": 1.4381, "ARG_OF_PERICENTER": 212.7944, "MEAN_ANOMALY": 147.0028, "EPHEMERIS_TYPE": 0, "CLASSIFICATION_TYPE": "U", "NORAD_CAT_ID": 36668, "ELEMENT_SET_NO": 999, "REV_AT_EPOCH": 57481, "BSTAR": 0.00052755734, "MEAN_MOTION_DOT": 1e-05, "MEAN_MOTION_DDOT": 0}, "tle": {"line1": "1 36668U 99025DYN 25351.21491137  .00001000  00000+0  52756-3 0  9996", "line2": "2 36668  98.6094   1.4381 0051533 212.7944 147.0028 14.15404749574816"}}, "geometry": {"type": "Point", "coordinates": [-177.60596501400087, -1.5762610390981362]}}, {"type": "Feature", "properties": {"norad_id": 36676, "name": "FENGYUN 1C DEB", "group": "fengyun-1c-debris", "lat": 68.83177251089168, "lon": 95.593832044245, "alt_km": 673.3160178768758, "timestamp": "2025-12-18T10:51:26.096293+00:00", "meta": {"OBJECT_NAME": "FENGYUN 1C DEB", "OBJECT_ID": "1999-025DYW", "EPOCH": "2025-12-12T12:03:08.237952", "MEAN_MOTION": 14.43199836, "ECCENTRICITY": 0.00955768, "INCLINATION": 98.7673, "RA_OF_ASC_NODE": 245.9859, "ARG_OF_PERICENTER": 132.3194, "MEAN_ANOMALY": 40.1509, "EPHEMERIS_TYPE": 0, "CLASSIFICATION_TYPE": "U", "NORAD_CAT_ID": 36676, "ELEMENT_SET_NO": 999, "REV_AT_EPOCH": 65062, "BSTAR": 0.00064689298, "MEAN_MOTION_DOT": 2.25e-05, "MEAN_MOTION_DDOT": 0}, "tle": {"line1": "1 36676U 99025DYW 25346.50217868  .00002250  00000+0  64689-3 0  9994", "line2": "2 36676  98.7673 245.9859 0095576 132.3194  40.1509 14.43199836650623"}}, "geometry": {"type": "Point", "coordinates": [95.593832044245, 68.83177251089168]}}, {"type": "Feature", "properties": {"norad_id": 36678, "name": "FENGYUN 1C DEB", "group": "fengyun-1c-debris", "lat": 7.765557444275449, "lon": -26.521333496144248, "alt_km": 674.6307219392875, "timestamp": "2025-12-18T10:51:26.096304+00:00", "meta": {"OBJECT_NAME": "FENGYUN 1C DEB", "OBJECT_ID": "1999-025DYY", "EPOCH": "2025-11-26T04:26:16.761408", "MEAN_MOTION": 14.37944691, "ECCENTRICITY": 0.01523469, "INCLINATION": 98.2901, "RA_OF_ASC_NODE": 313.1233, "ARG_OF_PERICENTER": 42.409, "MEAN_ANOMALY": 318.8754, "EPHEMERIS_TYPE": 0, "CLASSIFICATION_TYPE": "U", "NORAD_CAT_ID": 36678, "ELEMENT_SET_NO": 999, "REV_AT_EPOCH": 64751, "BSTAR": 0.00045851479, "MEAN_MOTION_DOT": 1.539e-05, "MEAN_MOTION_DDOT": 0}, "tle": {"line1": "1 36678U 99025DYY 25330.18491622  .00001539  00000+0  45851-3 0  9994", "line2": "2 36678  98.2901 313.1233 0152346  42.4090 318.8754 14.37944691647514"}}, "geometry": {"type": "Point", "coordinates": [-26.521333496144248, 7.765557444275449]}}, {"type": "Feature", "properties": {"norad_id": 36679, "name": "FENGYUN 1C DEB", "group": "fengyun-1c-debris", "lat": -36.06325205420216, "lon": 161.92182436944188, "alt_km": 930.8026533981465, "timestamp": "2025-12-18T10:51:26.096314+00:00", "meta": {"OBJECT_NAME": "FENGYUN 1C DEB", "OBJECT_ID": "1999-025DYZ", "EPOCH": "2025-12-12T05:06:20.489760", "MEAN_MOTION": 14.04635854, "ECCENTRICITY": 0.00860329, "INCLINATION": 98.8358, "RA_OF_ASC_NODE": 342.3526, "ARG_OF_PERICENTER": 94.9778, "MEAN_ANOMALY": 266.1218, "EPHEMERIS_TYPE": 0, "CLASSIFICATION_TYPE": "U", "NORAD_CAT_ID": 36679, "ELEMENT_SET_NO": 999, "REV_AT_EPOCH": 24541, "BSTAR": 0.00093240851, "MEAN_MOTION_DOT": 1.499e-05, "MEAN_MOTION_DDOT": 0}, "tle": {"line1": "1 36679U 99025DYZ 25346.21273715  .00001499  00000+0  93241-3 0  9998", "line2": "2 36679  98.8358 342.3526 0086032  94.9778 266.1218 14.04635854245414"}}, "geometry": {"type": "Point", "coordinates": [161.92182436944188, -36.06325205420216]}}, {"type": "Feature", "properties": {"norad_id": 36680, "name": "FENGYUN 1C DEB", "group": "fengyun-1c-debris", "lat": 69.74375163073132, "lon": -171.57084900326555, "alt_km": 898.2331541466556, "timestamp": "2025-12-18T10:51:26.096325+00:00", "meta": {"OBJECT_NAME": "FENGYUN 1C DEB", "OBJECT_ID": "1999-025DZA", "EPOCH": "2025-12-17T18:15:17.256960", "MEAN_MOTION": 14.18643852, "ECCENTRICITY": 0.01884461, "INCLINATION": 98.5491, "RA_OF_ASC_NODE": 343.7076, "ARG_OF_PERICENTER": 234.8383, "MEAN_ANOMALY": 304.4054, "EPHEMERIS_TYPE": 0, "CLASSIFICATION_TYPE": "U", "NORAD_CAT_ID": 36680, "ELEMENT_SET_NO": 999, "REV_AT_EPOCH": 64368, "BSTAR": 0.00035463309, "MEAN_MOTION_DOT": 8.32e-06, "MEAN_MOTION_DDOT": 0}, "tle": {"line1": "1 36680U 99025DZA 25351.76061640  .00000832  00000+0  35463-3 0  9990", "line2": "2 36680  98.5491 343.7076 0188446 234.8383 304.4054 14.18643852643682"}}, "geometry": {"type": "Point", "coordinates": [-171.57084900326555, 69.74375163073132]}}, {"type": "Feature", "properties": {"norad_id": 36681, "name": "FENGYUN 1C DEB", "group": "fengyun-1c-debris", "lat": 40.35673880052759, "lon": 178.36104762492417, "alt_km": 887.0287673463945, "timestamp": "2025-12-18T10:51:26.096336+00:00", "meta": {"OBJECT_NAME": "FENGYUN 1C DEB", "OBJECT_ID": "1999-025DZB", "EPOCH": "2025-12-10T18:18:12.275712", "MEAN_MOTION": 14.10256093, "ECCENTRICITY": 0.00454371, "INCLINATION": 98.6973, "RA_OF_ASC_NODE": 343.4508, "ARG_OF_PERICENTER": 355.1749, "MEAN_ANOMALY": 4.8979, "EPHEMERIS_TYPE": 0, "CLASSIFICATION_TYPE": "U", "NORAD_CAT_ID": 36681, "ELEMENT_SET_NO": 999, "REV_AT_EPOCH": 72730, "BSTAR": 0.00096687905, "MEAN_MOTION_DOT": 1.688e-05, "MEAN_MOTION_DDOT": 0}, "tle": {"line1": "1 36681U 99025DZB 25344.76264208  .00001688  00000+0  96688-3 0  9994", "line2": "2 36681  98.6973 343.4508 0045437 355.1749   4.8979 14.10256093727309"}}, "geometry": {"type": "Point", "coordinates": [178.36104762492417, 40.35673880052759]}}, {"type": "Feature", "properties": {"norad_id": 36682, "name": "FENGYUN 1C DEB", "group": "fengyun-1c-debris", "lat": -71.63726363148666, "lon": 48.86053397494134, "alt_km": 835.8794068717643, "timestamp": "2025-12-18T10:51:26.096346+00:00", "meta": {"OBJECT_NAME": "FENGYUN 1C DEB", "OBJECT_ID": "1999-025DZC", "EPOCH": "2025-12-15T04:29:39.952608", "MEAN_MOTION": 13.70143194, "ECCENTRICITY": 0.023343, "INCLINATION": 98.4849, "RA_OF_ASC_NODE": 252.7018, "ARG_OF_PERICENTER": 270.8269, "MEAN_ANOMALY": 86.6143, "EPHEMERIS_TYPE": 0, "CLASSIFICATION_TYPE": "U", "NORAD_CAT_ID": 36682, "ELEMENT_SET_NO": 999, "REV_AT_EPOCH": 61426, "BSTAR": 0.0010985687, "MEAN_MOTION_DOT": 1.133e-05, "MEAN_MOTION_DDOT": 0}, "tle": {"line1": "1 36682U 99025DZC 25349.18726797  .00001133  00000+0  10986-2 0  9993", "line2": "2 36682  98.4849 252.7018 0233430 270.8269  86.6143 13.70143194614263"}}, "geometry": {"type": "Point", "coordinates": [48.86053397494134, -71.63726363148666]}}, {"type": "Feature", "properties": {"norad_id": 36684, "name": "FENGYUN 1C DEB", "group": "fengyun-1c-debris", "lat": -29.738137248943932, "lon": -99.68612242721284, "alt_km": 588.6369758637593, "timestamp": "2025-12-18T10:51:26.096357+00:00", "meta": {"OBJECT_NAME": "FENGYUN 1C DEB", "OBJECT_ID": "1999-025DZE", "EPOCH": "2025-12-17T05:02:48.814944", "MEAN_MOTION": 14.96853969, "ECCENTRICITY": 0.00186873, "INCLINATION": 99.4565, "RA_OF_ASC_NODE": 84.278, "ARG_OF_PERICENTER": 94.2535, "MEAN_ANOMALY": 266.0817, "EPHEMERIS_TYPE": 0, "CLASSIFICATION_TYPE": "U", "NORAD_CAT_ID": 36684, "ELEMENT_SET_NO": 999, "REV_AT_EPOCH": 65968, "BSTAR": 0.0039120362, "MEAN_MOTION_DOT": 0.00045205, "MEAN_MOTION_DDOT": 0}, "tle": {"line1": "1 36684U 99025DZE 25351.21028721  .00045205  00000+0  39120-2 0  9993", "line2": "2 36684  99.4565  84.2780 0018687  94.2535 266.0817 14.96853969659688"}}, "geometry": {"type": "Point", "coordinates": [-99.68612242721284, -29.738137248943932]}}]}